CCSDS_OMM_VERS = 2.0
CREATION_DATE  = 
ORIGINATOR     = 

OBJECT_NAME    = STARLINK-36726
OBJECT_ID      = 2026-036X
CENTER_NAME    = EARTH
REF_FRAME      = TEME
TIME_SYSTEM    = UTC
MEAN_ELEMENT_THEORY = SGP/SGP4

EPOCH          = 2026-03-07T23:47:46.876992
MEAN_MOTION    = 15.82070371
ECCENTRICITY   = .0002345
INCLINATION    = 42.9982
RA_OF_ASC_NODE = 259.9910
ARG_OF_PERICENTER = 259.4145
MEAN_ANOMALY   = 100.6463

EPHEMERIS_TYPE = 0
CLASSIFICATION_TYPE = U
NORAD_CAT_ID   = 67925
ELEMENT_SET_NO = 999
REV_AT_EPOCH   = 340
BSTAR          = .10307E-2
MEAN_MOTION_DOT = .222744E-2
MEAN_MOTION_DDOT = 0

CCSDS_OMM_VERS = 2.0
CREATION_DATE  = 
ORIGINATOR     = 

OBJECT_NAME    = STARLINK-36758
OBJECT_ID      = 2026-036Y
CENTER_NAME    = EARTH
REF_FRAME      = TEME
TIME_SYSTEM    = UTC
MEAN_ELEMENT_THEORY = SGP/SGP4

EPOCH          = 2026-03-07T23:46:42.128832
MEAN_MOTION    = 15.82072424
ECCENTRICITY   = .0001949
INCLINATION    = 42.9980
RA_OF_ASC_NODE = 259.9837
ARG_OF_PERICENTER = 252.7065
MEAN_ANOMALY   = 107.3593

EPHEMERIS_TYPE = 0
CLASSIFICATION_TYPE = U
NORAD_CAT_ID   = 67926
ELEMENT_SET_NO = 999
REV_AT_EPOCH   = 340
BSTAR          = .95304E-3
MEAN_MOTION_DOT = .205524E-2
MEAN_MOTION_DDOT = 0

CCSDS_OMM_VERS = 2.0
CREATION_DATE  = 
ORIGINATOR     = 

OBJECT_NAME    = STARLINK-36728
OBJECT_ID      = 2026-036Z
CENTER_NAME    = EARTH
REF_FRAME      = TEME
TIME_SYSTEM    = UTC
MEAN_ELEMENT_THEORY = SGP/SGP4

EPOCH          = 2026-03-07T23:44:32.729280
MEAN_MOTION    = 15.82081960
ECCENTRICITY   = .0002367
INCLINATION    = 42.9988
RA_OF_ASC_NODE = 259.9718
ARG_OF_PERICENTER = 269.8768
MEAN_ANOMALY   = 90.1833

EPHEMERIS_TYPE = 0
CLASSIFICATION_TYPE = U
NORAD_CAT_ID   = 67927
ELEMENT_SET_NO = 999
REV_AT_EPOCH   = 340
BSTAR          = .12816E-2
MEAN_MOTION_DOT = .279063E-2
MEAN_MOTION_DDOT = 0

CCSDS_OMM_VERS = 2.0
CREATION_DATE  = 
ORIGINATOR     = 

OBJECT_NAME    = STARLINK-36771
OBJECT_ID      = 2026-036AA
CENTER_NAME    = EARTH
REF_FRAME      = TEME
TIME_SYSTEM    = UTC
MEAN_ELEMENT_THEORY = SGP/SGP4

EPOCH          = 2026-03-07T23:45:37.070496
MEAN_MOTION    = 15.82134646
ECCENTRICITY   = .000218
INCLINATION    = 42.9973
RA_OF_ASC_NODE = 259.9785
ARG_OF_PERICENTER = 279.7078
MEAN_ANOMALY   = 80.3548

EPHEMERIS_TYPE = 0
CLASSIFICATION_TYPE = U
NORAD_CAT_ID   = 67928
ELEMENT_SET_NO = 999
REV_AT_EPOCH   = 340
BSTAR          = .15915E-2
MEAN_MOTION_DOT = .350456E-2
MEAN_MOTION_DDOT = 0

CCSDS_OMM_VERS = 2.0
CREATION_DATE  = 
ORIGINATOR     = 

OBJECT_NAME    = STARLINK-36809
OBJECT_ID      = 2026-036AB
CENTER_NAME    = EARTH
REF_FRAME      = TEME
TIME_SYSTEM    = UTC
MEAN_ELEMENT_THEORY = SGP/SGP4

EPOCH          = 2026-03-07T23:43:27.731424
MEAN_MOTION    = 15.82063405
ECCENTRICITY   = .0002501
INCLINATION    = 42.9970
RA_OF_ASC_NODE = 259.9652
ARG_OF_PERICENTER = 257.3971
MEAN_ANOMALY   = 102.6621

EPHEMERIS_TYPE = 0
CLASSIFICATION_TYPE = U
NORAD_CAT_ID   = 67929
ELEMENT_SET_NO = 999
REV_AT_EPOCH   = 340
BSTAR          = .85647E-3
MEAN_MOTION_DOT = .184116E-2
MEAN_MOTION_DDOT = 0

CCSDS_OMM_VERS = 2.0
CREATION_DATE  = 
ORIGINATOR     = 

OBJECT_NAME    = STARLINK-36865
OBJECT_ID      = 2026-036AC
CENTER_NAME    = EARTH
REF_FRAME      = TEME
TIME_SYSTEM    = UTC
MEAN_ELEMENT_THEORY = SGP/SGP4

EPOCH          = 2026-03-07T23:41:18.394944
MEAN_MOTION    = 15.82052316
ECCENTRICITY   = .0002086
INCLINATION    = 42.9982
RA_OF_ASC_NODE = 259.9538
ARG_OF_PERICENTER = 273.7128
MEAN_ANOMALY   = 86.3505

EPHEMERIS_TYPE = 0
CLASSIFICATION_TYPE = U
NORAD_CAT_ID   = 67930
ELEMENT_SET_NO = 999
REV_AT_EPOCH   = 340
BSTAR          = .80018E-3
MEAN_MOTION_DOT = .171633E-2
MEAN_MOTION_DDOT = 0

CCSDS_OMM_VERS = 2.0
CREATION_DATE  = 
ORIGINATOR     = 

OBJECT_NAME    = STARLINK-36781
OBJECT_ID      = 2026-036AD
CENTER_NAME    = EARTH
REF_FRAME      = TEME
TIME_SYSTEM    = UTC
MEAN_ELEMENT_THEORY = SGP/SGP4

EPOCH          = 2026-03-07T23:42:23.326272
MEAN_MOTION    = 15.82050413
ECCENTRICITY   = .0001834
INCLINATION    = 42.9966
RA_OF_ASC_NODE = 259.9600
ARG_OF_PERICENTER = 277.5381
MEAN_ANOMALY   = 82.5283

EPHEMERIS_TYPE = 0
CLASSIFICATION_TYPE = U
NORAD_CAT_ID   = 67931
ELEMENT_SET_NO = 999
REV_AT_EPOCH   = 340
BSTAR          = .87834E-3
MEAN_MOTION_DOT = .188808E-2
MEAN_MOTION_DDOT = 0

CCSDS_OMM_VERS = 2.0
CREATION_DATE  = 
ORIGINATOR     = 

OBJECT_NAME    = STARLINK-36301
OBJECT_ID      = 2026-037A
CENTER_NAME    = EARTH
REF_FRAME      = TEME
TIME_SYSTEM    = UTC
MEAN_ELEMENT_THEORY = SGP/SGP4

EPOCH          = 2026-03-07T22:00:01.999584
MEAN_MOTION    = 15.84754167
ECCENTRICITY   = .0001218
INCLINATION    = 42.9991
RA_OF_ASC_NODE = 209.4553
ARG_OF_PERICENTER = 278.3222
MEAN_ANOMALY   = 319.0329

EPHEMERIS_TYPE = 0
CLASSIFICATION_TYPE = U
NORAD_CAT_ID   = 67932
ELEMENT_SET_NO = 999
REV_AT_EPOCH   = 282
BSTAR          = -.69097E-2
MEAN_MOTION_DOT = -.1468201E-1
MEAN_MOTION_DDOT = 0

CCSDS_OMM_VERS = 2.0
CREATION_DATE  = 
ORIGINATOR     = 

OBJECT_NAME    = STARLINK-36852
OBJECT_ID      = 2026-037B
CENTER_NAME    = EARTH
REF_FRAME      = TEME
TIME_SYSTEM    = UTC
MEAN_ELEMENT_THEORY = SGP/SGP4

EPOCH          = 2026-03-07T22:00:01.999584
MEAN_MOTION    = 15.84943629
ECCENTRICITY   = .0001378
INCLINATION    = 42.9995
RA_OF_ASC_NODE = 209.4461
ARG_OF_PERICENTER = 279.7999
MEAN_ANOMALY   = 321.2128

EPHEMERIS_TYPE = 0
CLASSIFICATION_TYPE = U
NORAD_CAT_ID   = 67933
ELEMENT_SET_NO = 999
REV_AT_EPOCH   = 291
BSTAR          = -.68236E-2
MEAN_MOTION_DOT = -.1464021E-1
MEAN_MOTION_DDOT = 0

CCSDS_OMM_VERS = 2.0
CREATION_DATE  = 
ORIGINATOR     = 

OBJECT_NAME    = STARLINK-36861
OBJECT_ID      = 2026-037C
CENTER_NAME    = EARTH
REF_FRAME      = TEME
TIME_SYSTEM    = UTC
MEAN_ELEMENT_THEORY = SGP/SGP4

EPOCH          = 2026-03-07T22:00:01.999584
MEAN_MOTION    = 15.85048507
ECCENTRICITY   = .0001503
INCLINATION    = 42.9994
RA_OF_ASC_NODE = 209.4364
ARG_OF_PERICENTER = 280.7864
MEAN_ANOMALY   = 324.1532

EPHEMERIS_TYPE = 0
CLASSIFICATION_TYPE = U
NORAD_CAT_ID   = 67934
ELEMENT_SET_NO = 999
REV_AT_EPOCH   = 291
BSTAR          = -.67851E-2
MEAN_MOTION_DOT = -.146341E-1
MEAN_MOTION_DDOT = 0

CCSDS_OMM_VERS = 2.0
CREATION_DATE  = 
ORIGINATOR     = 

OBJECT_NAME    = STARLINK-36860
OBJECT_ID      = 2026-037D
CENTER_NAME    = EARTH
REF_FRAME      = TEME
TIME_SYSTEM    = UTC
MEAN_ELEMENT_THEORY = SGP/SGP4

EPOCH          = 2026-03-07T22:00:01.999584
MEAN_MOTION    = 15.85146552
ECCENTRICITY   = .0001476
INCLINATION    = 42.9993
RA_OF_ASC_NODE = 209.4267
ARG_OF_PERICENTER = 278.9101
MEAN_ANOMALY   = 329.9870

EPHEMERIS_TYPE = 0
CLASSIFICATION_TYPE = U
NORAD_CAT_ID   = 67935
ELEMENT_SET_NO = 999
REV_AT_EPOCH   = 291
BSTAR          = -.67737E-2
MEAN_MOTION_DOT = -.1467428E-1
MEAN_MOTION_DDOT = 0

CCSDS_OMM_VERS = 2.0
CREATION_DATE  = 
ORIGINATOR     = 

OBJECT_NAME    = STARLINK-36848
OBJECT_ID      = 2026-037E
CENTER_NAME    = EARTH
REF_FRAME      = TEME
TIME_SYSTEM    = UTC
MEAN_ELEMENT_THEORY = SGP/SGP4

EPOCH          = 2026-03-07T22:00:01.999584
MEAN_MOTION    = 15.85366503
ECCENTRICITY   = .0001587
INCLINATION    = 42.9994
RA_OF_ASC_NODE = 209.4064
ARG_OF_PERICENTER = 275.6029
MEAN_ANOMALY   = 341.0672

EPHEMERIS_TYPE = 0
CLASSIFICATION_TYPE = U
NORAD_CAT_ID   = 67936
ELEMENT_SET_NO = 999
REV_AT_EPOCH   = 291
BSTAR          = -.67222E-2
MEAN_MOTION_DOT = -.1471598E-1
MEAN_MOTION_DDOT = 0

