STARLINK-36726          
1 67925U 26036X   26066.99151478  .00222744  00000+0  10307-2 0  9993
2 67925  42.9982 259.9910 0002345 259.4145 100.6463 15.82070371  3405
STARLINK-36758          
1 67926U 26036Y   26066.99076538  .00205524  00000+0  95304-3 0  9995
2 67926  42.9980 259.9837 0001949 252.7065 107.3593 15.82072424  3407
STARLINK-36728          
1 67927U 26036Z   26066.98926770  .00279063  00000+0  12816-2 0  9992
2 67927  42.9988 259.9718 0002367 269.8768  90.1833 15.82081960  3409
STARLINK-36771          
1 67928U 26036AA  26066.99001239  .00350456  00000+0  15915-2 0  9997
2 67928  42.9973 259.9785 0002180 279.7078  80.3548 15.82134646  3409
STARLINK-36809          
1 67929U 26036AB  26066.98851541  .00184116  00000+0  85647-3 0  9994
2 67929  42.9970 259.9652 0002501 257.3971 102.6621 15.82063405  3405
STARLINK-36865          
1 67930U 26036AC  26066.98701846  .00171633  00000+0  80018-3 0  9995
2 67930  42.9982 259.9538 0002086 273.7128  86.3505 15.82052316  3405
STARLINK-36781          
1 67931U 26036AD  26066.98776998  .00188808  00000+0  87834-3 0  9991
2 67931  42.9966 259.9600 0001834 277.5381  82.5283 15.82050413  3408
STARLINK-36301          
1 67932U 26037A   26066.91668981 -.01468201  00000+0 -69097-2 0  9999
2 67932  42.9991 209.4553 0001218 278.3222 319.0329 15.84754167  2826
STARLINK-36852          
1 67933U 26037B   26066.91668981 -.01464021  00000+0 -68236-2 0  9990
2 67933  42.9995 209.4461 0001378 279.7999 321.2128 15.84943629  2917
STARLINK-36861          
1 67934U 26037C   26066.91668981 -.01463410  00000+0 -67851-2 0  9994
2 67934  42.9994 209.4364 0001503 280.7864 324.1532 15.85048507  2915
STARLINK-36860          
1 67935U 26037D   26066.91668981 -.01467428  00000+0 -67737-2 0  9991
2 67935  42.9993 209.4267 0001476 278.9101 329.9870 15.85146552  2916
STARLINK-36848          
1 67936U 26037E   26066.91668981 -.01471598  00000+0 -67222-2 0  9994
2 67936  42.9994 209.4064 0001587 275.6029 341.0672 15.85366503  2914
